{"type": "FeatureCollection", "features": [ {"type": "Feature", "properties": {"norad_id": 66579, "name": "STARLINK-35868", "group": "last-30-days", "lat": 17.895169124448078, "lon": -71.6615672789459, "alt_km": 412.77703612739606, "timestamp": "2025-12-11T10:53:14.620464+00:00", "meta": {"OBJECT_NAME": "STARLINK-35868", "OBJECT_ID": "2025-268Y", "EPOCH": "2025-12-11T04:00:01.998720", "MEAN_MOTION": 15.50607344, "ECCENTRICITY": 0.0001681, "INCLINATION": 43.0004, "RA_OF_ASC_NODE": 130.2912, "ARG_OF_PERICENTER": 266.9997, "MEAN_ANOMALY": 82.4439, "EPHEMERIS_TYPE": 0, "CLASSIFICATION_TYPE": "U", "NORAD_CAT_ID": 66579, "ELEMENT_SET_NO": 999, "REV_AT_EPOCH": 441, "BSTAR": -0.001602, "MEAN_MOTION_DOT": -0.00093309, "MEAN_MOTION_DDOT": 0}, "tle": {"line1": "1 66579U 25268Y   25345.16668980 -.00093309  00000+0 -16020-2 0  9995", "line2": "2 66579  43.0004 130.2912 0001681 266.9997  82.4439 15.50607344  4412"}}, "geometry": {"type": "Point", "coordinates": [-71.6615672789459, 17.895169124448078]}}, {"type": "Feature", "properties": {"norad_id": 66580, "name": "STARLINK-35872", "group": "last-30-days", "lat": 16.662058522687186, "lon": -70.12601101610484, "alt_km": 412.9321859280217, "timestamp": "2025-12-11T10:53:14.620475+00:00", "meta": {"OBJECT_NAME": "STARLINK-35872", "OBJECT_ID": "2025-268Z", "EPOCH": "2025-12-11T04:00:01.998720", "MEAN_MOTION": 15.50606008, "ECCENTRICITY": 0.0001578, "INCLINATION": 43.0005, "RA_OF_ASC_NODE": 130.2869, "ARG_OF_PERICENTER": 268.4255, "MEAN_ANOMALY": 82.9355, "EPHEMERIS_TYPE": 0, "CLASSIFICATION_TYPE": "U", "NORAD_CAT_ID": 66580, "ELEMENT_SET_NO": 999, "REV_AT_EPOCH": 441, "BSTAR": -0.0015695, "MEAN_MOTION_DOT": -0.00091435, "MEAN_MOTION_DDOT": 0}, "tle": {"line1": "1 66580U 25268Z   25345.16668980 -.00091435  00000+0 -15695-2 0  9992", "line2": "2 66580  43.0005 130.2869 0001578 268.4255  82.9355 15.50606008  4413"}}, "geometry": {"type": "Point", "coordinates": [-70.12601101610484, 16.662058522687186]}}, {"type": "Feature", "properties": {"norad_id": 66581, "name": "STARLINK-35744", "group": "last-30-days", "lat": 15.460110427866852, "lon": -68.66202566969507, "alt_km": 412.9597825201572, "timestamp": "2025-12-11T10:53:14.620485+00:00", "meta": {"OBJECT_NAME": "STARLINK-35744", "OBJECT_ID": "2025-268AA", "EPOCH": "2025-12-11T04:00:01.998720", "MEAN_MOTION": 15.5047599, "ECCENTRICITY": 0.0001557, "INCLINATION": 43.0005, "RA_OF_ASC_NODE": 130.282, "ARG_OF_PERICENTER": 261.9805, "MEAN_ANOMALY": 91.2997, "EPHEMERIS_TYPE": 0, "CLASSIFICATION_TYPE": "U", "NORAD_CAT_ID": 66581, "ELEMENT_SET_NO": 999, "REV_AT_EPOCH": 436, "BSTAR": 0.0023911, "MEAN_MOTION_DOT": 0.00141986, "MEAN_MOTION_DDOT": 0}, "tle": {"line1": "1 66581U 25268AA  25345.16668980  .00141986  00000+0  23911-2 0  9998", "line2": "2 66581  43.0005 130.2820 0001557 261.9805  91.2997 15.50475990  4360"}}, "geometry": {"type": "Point", "coordinates": [-68.66202566969507, 15.460110427866852]}}, {"type": "Feature", "properties": {"norad_id": 66582, "name": "STARLINK-35746", "group": "last-30-days", "lat": 14.166359677185644, "lon": -67.11854271752429, "alt_km": 413.2878474002273, "timestamp": "2025-12-11T10:53:14.620495+00:00", "meta": {"OBJECT_NAME": "STARLINK-35746", "OBJECT_ID": "2025-268AB", "EPOCH": "2025-12-11T04:00:01.998720", "MEAN_MOTION": 15.50601311, "ECCENTRICITY": 0.000173, "INCLINATION": 43.0004, "RA_OF_ASC_NODE": 130.2764, "ARG_OF_PERICENTER": 268.215, "MEAN_ANOMALY": 86.9813, "EPHEMERIS_TYPE": 0, "CLASSIFICATION_TYPE": "U", "NORAD_CAT_ID": 66582, "ELEMENT_SET_NO": 999, "REV_AT_EPOCH": 441, "BSTAR": -0.0014502, "MEAN_MOTION_DOT": -0.00084575, "MEAN_MOTION_DDOT": 0}, "tle": {"line1": "1 66582U 25268AB  25345.16668980 -.00084575  00000+0 -14502-2 0  9997", "line2": "2 66582  43.0004 130.2764 0001730 268.2150  86.9813 15.50601311  4415"}}, "geometry": {"type": "Point", "coordinates": [-67.11854271752429, 14.166359677185644]}}, {"type": "Feature", "properties": {"norad_id": 66583, "name": "STARLINK-35941", "group": "last-30-days", "lat": 12.901810625509281, "lon": -65.63703683883142, "alt_km": 413.43867448584115, "timestamp": "2025-12-11T10:53:14.620505+00:00", "meta": {"OBJECT_NAME": "STARLINK-35941", "OBJECT_ID": "2025-268AC", "EPOCH": "2025-12-11T04:00:01.998720", "MEAN_MOTION": 15.50603554, "ECCENTRICITY": 0.0001745, "INCLINATION": 43.0004, "RA_OF_ASC_NODE": 130.2717, "ARG_OF_PERICENTER": 267.8528, "MEAN_ANOMALY": 89.2615, "EPHEMERIS_TYPE": 0, "CLASSIFICATION_TYPE": "U", "NORAD_CAT_ID": 66583, "ELEMENT_SET_NO": 999, "REV_AT_EPOCH": 441, "BSTAR": -0.0015037, "MEAN_MOTION_DOT": -0.00087657, "MEAN_MOTION_DDOT": 0}, "tle": {"line1": "1 66583U 25268AC  25345.16668980 -.00087657  00000+0 -15037-2 0  9996", "line2": "2 66583  43.0004 130.2717 0001745 267.8528  89.2615 15.50603554  4411"}}, "geometry": {"type": "Point", "coordinates": [-65.63703683883142, 12.901810625509281]}}, {"type": "Feature", "properties": {"norad_id": 66584, "name": "STARLINK-35939", "group": "last-30-days", "lat": 11.564231888963631, "lon": -64.09574812892939, "alt_km": 413.5822433940011, "timestamp": "2025-12-11T10:53:14.620517+00:00", "meta": {"OBJECT_NAME": "STARLINK-35939", "OBJECT_ID": "2025-268AD", "EPOCH": "2025-12-11T04:00:01.998720", "MEAN_MOTION": 15.50749479, "ECCENTRICITY": 0.0001596, "INCLINATION": 43.0003, "RA_OF_ASC_NODE": 130.2678, "ARG_OF_PERICENTER": 267.328, "MEAN_ANOMALY": 91.729, "EPHEMERIS_TYPE": 0, "CLASSIFICATION_TYPE": "U", "NORAD_CAT_ID": 66584, "ELEMENT_SET_NO": 999, "REV_AT_EPOCH": 441, "BSTAR": -0.0060242, "MEAN_MOTION_DOT": -0.00340884, "MEAN_MOTION_DDOT": 0}, "tle": {"line1": "1 66584U 25268AD  25345.16668980 -.00340884  00000+0 -60242-2 0  9999", "line2": "2 66584  43.0003 130.2678 0001596 267.3280  91.7290 15.50749479  4415"}}, "geometry": {"type": "Point", "coordinates": [-64.09574812892939, 11.564231888963631]}}, {"type": "Feature", "properties": {"norad_id": 66585, "name": "STARLINK-35963", "group": "last-30-days", "lat": 10.351894694414028, "lon": -62.7204112378789, "alt_km": 413.63887291997617, "timestamp": "2025-12-11T10:53:14.620529+00:00", "meta": {"OBJECT_NAME": "STARLINK-35963", "OBJECT_ID": "2025-268AE", "EPOCH": "2025-12-11T04:00:01.998720", "MEAN_MOTION": 15.50605031, "ECCENTRICITY": 0.0001562, "INCLINATION": 43.0005, "RA_OF_ASC_NODE": 130.2629, "ARG_OF_PERICENTER": 263.9487, "MEAN_ANOMALY": 96.9964, "EPHEMERIS_TYPE": 0, "CLASSIFICATION_TYPE": "U", "NORAD_CAT_ID": 66585, "ELEMENT_SET_NO": 999, "REV_AT_EPOCH": 441, "BSTAR": -0.0015175, "MEAN_MOTION_DOT": -0.00088452, "MEAN_MOTION_DDOT": 0}, "tle": {"line1": "1 66585U 25268AE  25345.16668980 -.00088452  00000+0 -15175-2 0  9995", "line2": "2 66585  43.0005 130.2629 0001562 263.9487  96.9964 15.50605031  4418"}}, "geometry": {"type": "Point", "coordinates": [-62.7204112378789, 10.351894694414028]}}, {"type": "Feature", "properties": {"norad_id": 66586, "name": "TJS-21", "group": "last-30-days", "lat": 63.246436010021675, "lon": -107.38057493636006, "alt_km": 38246.79794910123, "timestamp": "2025-12-11T10:53:14.620566+00:00", "meta": {"OBJECT_NAME": "TJS-21", "OBJECT_ID": "2025-269A", "EPOCH": "2025-12-09T17:35:27.978144", "MEAN_MOTION": 2.00565752, "ECCENTRICITY": 0.68056573, "INCLINATION": 63.268, "RA_OF_ASC_NODE": 162.6671, "ARG_OF_PERICENTER": 269.7843, "MEAN_ANOMALY": 18.6559, "EPHEMERIS_TYPE": 0, "CLASSIFICATION_TYPE": "U", "NORAD_CAT_ID": 66586, "ELEMENT_SET_NO": 999, "REV_AT_EPOCH": 37, "BSTAR": -0.041606579, "MEAN_MOTION_DOT": 1.08e-05, "MEAN_MOTION_DDOT": 0}, "tle": {"line1": "1 66586U 25269A   25343.73296271  .00001080  00000+0 -41607-1 0  9997", "line2": "2 66586  63.2680 162.6671 6805657 269.7843  18.6559  2.00565752   379"}}, "geometry": {"type": "Point", "coordinates": [-107.38057493636006, 63.246436010021675]}}, {"type": "Feature", "properties": {"norad_id": 66587, "name": "CZ-3B R/B", "group": "last-30-days", "lat": 30.61037524838115, "lon": -161.80400254825057, "alt_km": 38498.209437493235, "timestamp": "2025-12-11T10:53:14.620587+00:00", "meta": {"OBJECT_NAME": "CZ-3B R/B", "OBJECT_ID": "2025-269B", "EPOCH": "2025-12-10T07:44:42.689184", "MEAN_MOTION": 2.03033273, "ECCENTRICITY": 0.7519666, "INCLINATION": 51.3444, "RA_OF_ASC_NODE": 170.2038, "ARG_OF_PERICENTER": 228.2816, "MEAN_ANOMALY": 37.6674, "EPHEMERIS_TYPE": 0, "CLASSIFICATION_TYPE": "U", "NORAD_CAT_ID": 66587, "ELEMENT_SET_NO": 999, "REV_AT_EPOCH": 40, "BSTAR": 0.0011971, "MEAN_MOTION_DOT": 0.00055207, "MEAN_MOTION_DDOT": 9.8045e-07}, "tle": {"line1": "1 66587U 25269B   25344.32271631  .00055207  98045-6  11971-2 0  9991", "line2": "2 66587  51.3444 170.2038 7519666 228.2816  37.6674  2.03033273   405"}}, "geometry": {"type": "Point", "coordinates": [-161.80400254825057, 30.61037524838115]}}, {"type": "Feature", "properties": {"norad_id": 66588, "name": "STARLINK-36076", "group": "last-30-days", "lat": 25.484737787054772, "lon": -128.9746956313581, "alt_km": 414.78053290134085, "timestamp": "2025-12-11T10:53:14.620599+00:00", "meta": {"OBJECT_NAME": "STARLINK-36076", "OBJECT_ID": "2025-270A", "EPOCH": "2025-12-11T04:00:01.998720", "MEAN_MOTION": 15.50661257, "ECCENTRICITY": 6.31e-05, "INCLINATION": 42.9996, "RA_OF_ASC_NODE": 201.938, "ARG_OF_PERICENTER": 245.0271, "MEAN_ANOMALY": 350.9897, "EPHEMERIS_TYPE": 0, "CLASSIFICATION_TYPE": "U", "NORAD_CAT_ID": 66588, "ELEMENT_SET_NO": 999, "REV_AT_EPOCH": 414, "BSTAR": -0.035794, "MEAN_MOTION_DOT": -0.0189293, "MEAN_MOTION_DDOT": 0}, "tle": {"line1": "1 66588U 25270A   25345.16668980 -.01892930  00000+0 -35794-1 0  9994", "line2": "2 66588  42.9996 201.9380 0000631 245.0271 350.9897 15.50661257  4146"}}, "geometry": {"type": "Point", "coordinates": [-128.9746956313581, 25.484737787054772]}}]}